PROBA-1                 
1 26958U 01049B   21275.38461004  .00001007  00000-0  90871-4 0  9994
2 26958  97.7821 231.1239 0073736 124.1651 236.6557 14.95780468 85899
BIRD 2                  
1 26959U 01049C   21274.75531077  .00005489  00000-0  14136-3 0  9990
2 26959  97.7858 344.9958 0006908 207.5075 152.5804 15.39669655413332
CUTE-1 (CO-55)          
1 27844U 03031E   21274.84126405  .00000113  00000-0  70222-4 0  9990
2 27844  98.6823 281.4465 0010750 127.0634 233.1529 14.22336160947103
CUBESAT XI-IV (CO-57)   
1 27848U 03031J   21274.86619380  .00000091  00000-0  61159-4 0  9999
2 27848  98.6877 282.0284 0010463 139.4480 220.7479 14.21909815946937
GENESIS 1               
1 29252U 06029A   21275.22572271  .00001792  00000-0  92365-4 0  9990
2 29252  64.5228 197.7112 0054122 300.1128  59.4636 15.18908640839810
FALCONSAT-3             
1 30776U 07006E   21274.97993805  .00010756  00000-0  24644-3 0  9994
2 30776  35.4335 135.0396 0001718 201.3050 158.7607 15.41994770809551
GENESIS 2               
1 31789U 07028A   21275.32144002  .00001511  00000-0  83872-4 0  9998
2 31789  64.4924 239.9992 0016447   9.2014 350.9407 15.17947750786768
APRIZESAT 4             
1 35684U 09041D   21274.95139434  .00000215  00000-0  35937-4 0  9993
2 35684  98.3134 274.7599 0048342 100.4523 260.2140 14.79403832656895
APRIZESAT 3             
1 35686U 09041F   21275.15800634  .00000198  00000-0  27629-4 0  9994
2 35686  98.1285 350.9536 0071585 310.6328  48.8676 14.87558722660250
PROBA-2                 
1 36037U 09059B   21275.50256886  .00000063  00000-0  25945-4 0  9997
2 36037  98.2240 101.9912 0013286 179.1928 180.9292 14.53165383631882
APRIZESAT 5             
1 37792U 11044E   21275.35473115  .00000166  00000-0  31997-4 0  9990
2 37792  98.3607 137.6332 0059231 105.8175 254.9574 14.75524047545082
APRIZESAT 6             
1 37793U 11044F   21274.83958987  .00000198  00000-0  39291-4 0  9998
2 37793  98.4243 112.7983 0047336 151.9419 219.7808 14.72575073543801
TET-1                   
1 38710U 12039D   21274.74267290  .00014325  00000-0  20663-3 0  9992
2 38710  97.5449 334.4505 0000318 198.7550 161.3692 15.56106890517046
PROBA-V                 
1 39159U 13021A   21275.38644689 -.00000012  00000-0  13111-4 0  9994
2 39159  98.3968 318.8024 0005223 118.6783 241.4922 14.23007979436621
STPSAT-3                
1 39380U 13064A   21275.36682453  .00002823  00000-0  77039-4 0  9996
2 39380  40.4985 146.2485 0004709 243.6685 116.3647 15.39082026441125
APRIZESAT 7             
1 39416U 13066A   21274.94700448  .00000300  00000-0  41452-4 0  9994
2 39416  97.5467 263.5370 0042236 128.5273 231.9741 14.84120027425720
APRIZESAT 8             
1 39425U 13066K   21274.89346576  .00000215  00000-0  33306-4 0  9990
2 39425  97.5932 254.2480 0052103 166.1604 194.1051 14.81318781424687
BUGSAT-1 (TITA)         
1 40014U 14033E   21275.52152091  .00001502  00000-0  13882-3 0  9995
2 40014  98.1208 258.9051 0031311 167.9572 192.2400 14.95862734397573
SAUDISAT 4              
1 40016U 14033G   21274.84788623  .00000153  00000-0  29419-4 0  9992
2 40016  97.6576 118.7115 0046823 259.7309  99.8620 14.75381325392260
APRIZESAT 9             
1 40018U 14033J   21275.45000633  .00000124  00000-0  27813-4 0  9994
2 40018  97.7014  95.2249 0070452 322.9520  36.6834 14.70077288390876
APRIZESAT 10            
1 40019U 14033K   21275.43141815  .00000062  00000-0  18842-4 0  9994
2 40019  97.7433  84.4924 0084203   1.0453 359.0913 14.67130059390143
TDS 1                   
1 40076U 14037H   21275.47228667  .00000652  00000-0  83749-4 0  9999
2 40076  98.4249 129.1049 0006799 173.5420 186.5882 14.84868345391499
TIANTUO 2               
1 40144U 14053B   21275.51096639  .00002261  00000-0  66941-4 0  9993
2 40144  97.2171 355.6781 0012804  54.8118  41.6712 15.35840008395483
TECHNOSAT               
1 42829U 17042E   21275.40603427  .00000260  00000-0  31280-4 0  9998
2 42829  97.4524 139.1755 0014955 144.7450 215.4762 14.91353542229623
FLYING LAPTOP           
1 42831U 17042G   21275.31158736  .00000618  00000-0  67028-4 0  9995
2 42831  97.4543 139.3403 0014798 145.5447 214.6719 14.91356778229615
HAWK-A                  
1 43765U 18099H   21274.87051469  .00000969  00000-0  90438-4 0  9990
2 43765  97.6532 344.0603 0016205  62.3313 297.9551 14.96390832154464
HAWK-B                  
1 43794U 18099AN  21275.47270726  .00000948  00000-0  88523-4 0  9997
2 43794  97.6532 344.6494 0016261  60.5258 299.7583 14.96390639154549
HAWK-C                  
1 43799U 18099AT  21275.47250673  .00000806  00000-0  76029-4 0  9992
2 43799  97.6529 344.5633 0016182  60.4881 299.7952 14.96391866154540
SALSAT                  
1 46495U 20068K   21274.94520482  .00000719  00000-0  57010-4 0  9998
2 46495  97.6987 211.8437 0019005  73.6187 286.7126 15.03573598 55333
